{
  "type": "FeatureCollection",
  "features": [
    {
      "type": "Feature",
      "properties": {
        "norad_id": 33412,
        "name": "COSMO-SKYMED 3",
        "group": "resource",
        "lat": -55.63162726580739,
        "lon": 0.5376641975281222,
        "alt_km": 550.102281600527,
        "timestamp": "2025-12-07T20:38:13.734132+00:00",
        "meta_object_name": "COSMO-SKYMED 3",
        "meta_object_id": "2008-054A",
        "meta_epoch": "2025-12-07T06:49:39.214560",
        "meta_mean_motion": 15.05273536,
        "meta_eccentricity": 0.00157376,
        "meta_inclination": 97.8455,
        "meta_ra_of_asc_node": 191.5845,
        "meta_arg_of_pericenter": 192.4817,
        "meta_mean_anomaly": 167.6022,
        "meta_ephemeris_type": 0,
        "meta_classification_type": "U",
        "meta_norad_cat_id": 33412,
        "meta_element_set_no": 999,
        "meta_rev_at_epoch": 92805,
        "meta_bstar": 0.00054027983,
        "meta_mean_motion_dot": 7.682e-05,
        "meta_mean_motion_ddot": 0,
        "tle_line1": "1 33412U 08054A   25341.28448165  .00007682  00000+0  54028-3 0  9997",
        "tle_line2": "2 33412  97.8455 191.5845 0015737 192.4817 167.6022 15.05273536928056"
      },
      "geometry": {
        "type": "Point",
        "coordinates": [
          0.5376641975281222,
          -55.63162726580739
        ]
      }
    },
    {
      "type": "Feature",
      "properties": {
        "norad_id": 33446,
        "name": "YAOGAN-4",
        "group": "resource",
        "lat": -72.77808919752968,
        "lon": 65.3290374671275,
        "alt_km": 627.4374864516276,
        "timestamp": "2025-12-07T20:38:13.734143+00:00",
        "meta_object_name": "YAOGAN-4",
        "meta_object_id": "2008-061A",
        "meta_epoch": "2025-12-07T06:32:00.675456",
        "meta_mean_motion": 14.82655941,
        "meta_eccentricity": 0.00140606,
        "meta_inclination": 97.9176,
        "meta_ra_of_asc_node": 271.4251,
        "meta_arg_of_pericenter": 341.8774,
        "meta_mean_anomaly": 18.1937,
        "meta_ephemeris_type": 0,
        "meta_classification_type": "U",
        "meta_norad_cat_id": 33446,
        "meta_element_set_no": 999,
        "meta_rev_at_epoch": 91722,
        "meta_bstar": 0.0003352026,
        "meta_mean_motion_dot": 2.652e-05,
        "meta_mean_motion_ddot": 0,
        "tle_line1": "1 33446U 08061A   25341.27223004  .00002652  00000+0  33520-3 0  9990",
        "tle_line2": "2 33446  97.9176 271.4251 0014060 341.8774  18.1937 14.82655941917223"
      },
      "geometry": {
        "type": "Point",
        "coordinates": [
          65.3290374671275,
          -72.77808919752968
        ]
      }
    },
    {
      "type": "Feature",
      "properties": {
        "norad_id": 33492,
        "name": "GOSAT (IBUKI)",
        "group": "resource",
        "lat": -31.8189765038953,
        "lon": -94.5241874128713,
        "alt_km": 675.4390326247612,
        "timestamp": "2025-12-07T20:38:13.734154+00:00",
        "meta_object_name": "GOSAT (IBUKI)",
        "meta_object_id": "2009-002A",
        "meta_epoch": "2025-12-07T04:56:47.382144",
        "meta_mean_motion": 14.67538112,
        "meta_eccentricity": 0.0001013,
        "meta_inclination": 98.077,
        "meta_ra_of_asc_node": 89.8863,
        "meta_arg_of_pericenter": 87.0443,
        "meta_mean_anomaly": 273.0877,
        "meta_ephemeris_type": 0,
        "meta_classification_type": "U",
        "meta_norad_cat_id": 33492,
        "meta_element_set_no": 999,
        "meta_rev_at_epoch": 90330,
        "meta_bstar": 0.00031591468,
        "meta_mean_motion_dot": 1.744e-05,
        "meta_mean_motion_ddot": 0,
        "tle_line1": "1 33492U 09002A   25341.20610396  .00001744  00000+0  31591-3 0  9991",
        "tle_line2": "2 33492  98.0770  89.8863 0001013  87.0443 273.0877 14.67538112903304"
      },
      "geometry": {
        "type": "Point",
        "coordinates": [
          -94.5241874128713,
          -31.8189765038953
        ]
      }
    },
    {
      "type": "Feature",
      "properties": {
        "norad_id": 35681,
        "name": "DEIMOS-1",
        "group": "resource",
        "lat": 19.49037504568352,
        "lon": -34.5591856866684,
        "alt_km": 644.9102440909737,
        "timestamp": "2025-12-07T20:38:13.734165+00:00",
        "meta_object_name": "DEIMOS-1",
        "meta_object_id": "2009-041A",
        "meta_epoch": "2025-12-07T06:53:16.658304",
        "meta_mean_motion": 14.74940019,
        "meta_eccentricity": 0.00026955,
        "meta_inclination": 97.7153,
        "meta_ra_of_asc_node": 142.1446,
        "meta_arg_of_pericenter": 90.5898,
        "meta_mean_anomaly": 269.5621,
        "meta_ephemeris_type": 0,
        "meta_classification_type": "U",
        "meta_norad_cat_id": 35681,
        "meta_element_set_no": 999,
        "meta_rev_at_epoch": 87859,
        "meta_bstar": 0.00020617173,
        "meta_mean_motion_dot": 1.338e-05,
        "meta_mean_motion_ddot": 0,
        "tle_line1": "1 35681U 09041A   25341.28699836  .00001338  00000+0  20617-3 0  9996",
        "tle_line2": "2 35681  97.7153 142.1446 0002695  90.5898 269.5621 14.74940019878597"
      },
      "geometry": {
        "type": "Point",
        "coordinates": [
          -34.5591856866684,
          19.49037504568352
        ]
      }
    },
    {
      "type": "Feature",
      "properties": {
        "norad_id": 35682,
        "name": "DUBAISAT-1",
        "group": "resource",
        "lat": 76.23158168027344,
        "lon": -32.47044347442494,
        "alt_km": 643.6975332640159,
        "timestamp": "2025-12-07T20:38:13.734177+00:00",
        "meta_object_name": "DUBAISAT-1",
        "meta_object_id": "2009-041B",
        "meta_epoch": "2025-12-07T07:09:04.996800",
        "meta_mean_motion": 14.74580627,
        "meta_eccentricity": 0.00098868,
        "meta_inclination": 97.979,
        "meta_ra_of_asc_node": 112.0582,
        "meta_arg_of_pericenter": 333.3498,
        "meta_mean_anomaly": 26.7201,
        "meta_ephemeris_type": 0,
        "meta_classification_type": "U",
        "meta_norad_cat_id": 35682,
        "meta_element_set_no": 999,
        "meta_rev_at_epoch": 87681,
        "meta_bstar": 0.00040160615,
        "meta_mean_motion_dot": 2.627e-05,
        "meta_mean_motion_ddot": 0,
        "tle_line1": "1 35682U 09041B   25341.29797450  .00002627  00000+0  40161-3 0  9997",
        "tle_line2": "2 35682  97.9790 112.0582 0009886 333.3498  26.7201 14.74580627876812"
      },
      "geometry": {
        "type": "Point",
        "coordinates": [
          -32.47044347442494,
          76.23158168027344
        ]
      }
    },
    {
      "type": "Feature",
      "properties": {
        "norad_id": 35931,
        "name": "OCEANSAT-2",
        "group": "resource",
        "lat": 25.611459549507277,
        "lon": 166.93004237426544,
        "alt_km": 895.505853114325,
        "timestamp": "2025-12-07T20:38:13.734194+00:00",
        "meta_object_name": "OCEANSAT-2",
        "meta_object_id": "2009-051A",
        "meta_epoch": "2025-12-07T06:10:47.174880",
        "meta_mean_motion": 13.99625869,
        "meta_eccentricity": 0.00164339,
        "meta_inclination": 98.2227,
        "meta_ra_of_asc_node": 342.4141,
        "meta_arg_of_pericenter": 59.311,
        "meta_mean_anomaly": 300.9673,
        "meta_ephemeris_type": 0,
        "meta_classification_type": "U",
        "meta_norad_cat_id": 35931,
        "meta_element_set_no": 999,
        "meta_rev_at_epoch": 85248,
        "meta_bstar": -7.8819889e-05,
        "meta_mean_motion_dot": -1.53e-06,
        "meta_mean_motion_ddot": 0,
        "tle_line1": "1 35931U 09051A   25341.25749045 -.00000153  00000+0 -78820-4 0  9996",
        "tle_line2": "2 35931  98.2227 342.4141 0016433  59.3110 300.9673 13.99625869852481"
      },
      "geometry": {
        "type": "Point",
        "coordinates": [
          166.93004237426544,
          25.611459549507277
        ]
      }
    },
    {
      "type": "Feature",
      "properties": {
        "norad_id": 35946,
        "name": "WORLDVIEW-2 (WV-2)",
        "group": "resource",
        "lat": -32.141470654806774,
        "lon": 58.38858963268292,
        "alt_km": 773.6933228141916,
        "timestamp": "2025-12-07T20:38:13.734204+00:00",
        "meta_object_name": "WORLDVIEW-2 (WV-2)",
        "meta_object_id": "2009-055A",
        "meta_epoch": "2025-12-07T07:25:31.317600",
        "meta_mean_motion": 14.37649091,
        "meta_eccentricity": 0.0005394,
        "meta_inclination": 98.4766,
        "meta_ra_of_asc_node": 52.4694,
        "meta_arg_of_pericenter": 79.932,
        "meta_mean_anomaly": 280.2475,
        "meta_ephemeris_type": 0,
        "meta_classification_type": "U",
        "meta_norad_cat_id": 35946,
        "meta_element_set_no": 999,
        "meta_rev_at_epoch": 84807,
        "meta_bstar": 0.00014432801,
        "meta_mean_motion_dot": 3.9e-06,
        "meta_mean_motion_ddot": 0,
        "tle_line1": "1 35946U 09055A   25341.30939025  .00000390  00000+0  14433-3 0  9991",
        "tle_line2": "2 35946  98.4766  52.4694 0005394  79.9320 280.2475 14.37649091848079"
      },
      "geometry": {
        "type": "Point",
        "coordinates": [
          58.38858963268292,
          -32.141470654806774
        ]
      }
    }
  ]
}